{"type": "FeatureCollection", "features": [ {"type": "Feature", "properties": {"norad_id": 41785, "name": "ALSAT 1B", "group": "resource", "lat": 21.993377378175936, "lon": 5.771719512963577, "alt_km": 649.356993435018, "timestamp": "2025-12-23T14:49:08.987034+00:00", "meta": {"OBJECT_NAME": "ALSAT 1B", "OBJECT_ID": "2016-059C", "EPOCH": "2025-12-23T08:11:36.153024", "MEAN_MOTION": 14.72086138, "ECCENTRICITY": 0.00107759, "INCLINATION": 97.7804, "RA_OF_ASC_NODE": 8.6732, "ARG_OF_PERICENTER": 73.6389, "MEAN_ANOMALY": 286.6003, "EPHEMERIS_TYPE": 0, "CLASSIFICATION_TYPE": "U", "NORAD_CAT_ID": 41785, "ELEMENT_SET_NO": 999, "REV_AT_EPOCH": 49470, "BSTAR": 9.3034048e-05, "MEAN_MOTION_DOT": 5.38e-06, "MEAN_MOTION_DDOT": 0}, "tle": {"line1": "1 41785U 16059C   25357.34139066  .00000538  00000+0  93034-4 0  9998", "line2": "2 41785  97.7804   8.6732 0010775  73.6389 286.6003 14.72086138494703"}}, "geometry": {"type": "Point", "coordinates": [5.771719512963577, 21.993377378175936]}}, {"type": "Feature", "properties": {"norad_id": 41787, "name": "PATHFINDER 1", "group": "resource", "lat": -80.72746018532307, "lon": 57.14042718259223, "alt_km": 691.172027312401, "timestamp": "2025-12-23T14:49:08.987045+00:00", "meta": {"OBJECT_NAME": "PATHFINDER 1", "OBJECT_ID": "2016-059E", "EPOCH": "2025-12-23T05:23:11.414688", "MEAN_MOTION": 14.6733864, "ECCENTRICITY": 0.00297065, "INCLINATION": 97.8137, "RA_OF_ASC_NODE": 359.5115, "ARG_OF_PERICENTER": 49.2406, "MEAN_ANOMALY": 311.1371, "EPHEMERIS_TYPE": 0, "CLASSIFICATION_TYPE": "U", "NORAD_CAT_ID": 41787, "ELEMENT_SET_NO": 999, "REV_AT_EPOCH": 49390, "BSTAR": 0.00013866817, "MEAN_MOTION_DOT": 7.41e-06, "MEAN_MOTION_DDOT": 0}, "tle": {"line1": "1 41787U 16059E   25357.22443767  .00000741  00000+0  13867-3 0  9994", "line2": "2 41787  97.8137 359.5115 0029706  49.2406 311.1371 14.67338640493906"}}, "geometry": {"type": "Point", "coordinates": [57.14042718259223, -80.72746018532307]}}, {"type": "Feature", "properties": {"norad_id": 41790, "name": "SCATSAT 1", "group": "resource", "lat": 1.9151790607898413, "lon": 54.14849879811345, "alt_km": 636.2485064076018, "timestamp": "2025-12-23T14:49:08.987057+00:00", "meta": {"OBJECT_NAME": "SCATSAT 1", "OBJECT_ID": "2016-059H", "EPOCH": "2025-12-23T03:26:39.466176", "MEAN_MOTION": 14.78968555, "ECCENTRICITY": 0.00564819, "INCLINATION": 98.1447, "RA_OF_ASC_NODE": 53.9431, "ARG_OF_PERICENTER": 95.2221, "MEAN_ANOMALY": 265.5439, "EPHEMERIS_TYPE": 0, "CLASSIFICATION_TYPE": "U", "NORAD_CAT_ID": 41790, "ELEMENT_SET_NO": 999, "REV_AT_EPOCH": 7556, "BSTAR": 0.00018480331, "MEAN_MOTION_DOT": 1.344e-05, "MEAN_MOTION_DDOT": 0}, "tle": {"line1": "1 41790U 16059H   25357.14351234  .00001344  00000+0  18480-3 0  9992", "line2": "2 41790  98.1447  53.9431 0056481  95.2221 265.5439 14.78968555 75561"}}, "geometry": {"type": "Point", "coordinates": [54.14849879811345, 1.9151790607898413]}}, {"type": "Feature", "properties": {"norad_id": 41875, "name": "GOKTURK 1A", "group": "resource", "lat": 4.798268184527242, "lon": 70.5261342305434, "alt_km": 686.5928676999447, "timestamp": "2025-12-23T14:49:08.987068+00:00", "meta": {"OBJECT_NAME": "GOKTURK 1A", "OBJECT_ID": "2016-073A", "EPOCH": "2025-12-23T07:27:17.803008", "MEAN_MOTION": 14.62791376, "ECCENTRICITY": 0.00012739, "INCLINATION": 98.1431, "RA_OF_ASC_NODE": 249.5348, "ARG_OF_PERICENTER": 81.1454, "MEAN_ANOMALY": 278.9892, "EPHEMERIS_TYPE": 0, "CLASSIFICATION_TYPE": "U", "NORAD_CAT_ID": 41875, "ELEMENT_SET_NO": 999, "REV_AT_EPOCH": 48311, "BSTAR": 0.00013601981, "MEAN_MOTION_DOT": 6.47e-06, "MEAN_MOTION_DDOT": 0}, "tle": {"line1": "1 41875U 16073A   25357.31062272  .00000647  00000+0  13602-3 0  9998", "line2": "2 41875  98.1431 249.5348 0001273  81.1454 278.9892 14.62791376483112"}}, "geometry": {"type": "Point", "coordinates": [70.5261342305434, 4.798268184527242]}}, {"type": "Feature", "properties": {"norad_id": 41877, "name": "RESOURCESAT-2A", "group": "resource", "lat": 52.93714767073937, "lon": 55.609828015451804, "alt_km": 815.9128318530511, "timestamp": "2025-12-23T14:49:08.987080+00:00", "meta": {"OBJECT_NAME": "RESOURCESAT-2A", "OBJECT_ID": "2016-074A", "EPOCH": "2025-12-23T07:48:35.807616", "MEAN_MOTION": 14.21604687, "ECCENTRICITY": 0.00015448, "INCLINATION": 98.7746, "RA_OF_ASC_NODE": 67.1197, "ARG_OF_PERICENTER": 206.8878, "MEAN_ANOMALY": 153.2219, "EPHEMERIS_TYPE": 0, "CLASSIFICATION_TYPE": "U", "NORAD_CAT_ID": 41877, "ELEMENT_SET_NO": 999, "REV_AT_EPOCH": 46931, "BSTAR": 0.00020959666, "MEAN_MOTION_DOT": 4.15e-06, "MEAN_MOTION_DDOT": 0}, "tle": {"line1": "1 41877U 16074A   25357.32541444  .00000415  00000+0  20960-3 0  9993", "line2": "2 41877  98.7746  67.1197 0001544 206.8878 153.2219 14.21604687469319"}}, "geometry": {"type": "Point", "coordinates": [55.609828015451804, 52.93714767073937]}}, {"type": "Feature", "properties": {"norad_id": 41948, "name": "CARTOSAT-2D", "group": "resource", "lat": -78.25658075413484, "lon": 93.8821585391121, "alt_km": 519.0159314888233, "timestamp": "2025-12-23T14:49:08.987092+00:00", "meta": {"OBJECT_NAME": "CARTOSAT-2D", "OBJECT_ID": "2017-008A", "EPOCH": "2025-12-23T07:16:15.786336", "MEAN_MOTION": 15.1916889, "ECCENTRICITY": 0.00052346, "INCLINATION": 97.4375, "RA_OF_ASC_NODE": 54.6397, "ARG_OF_PERICENTER": 122.9864, "MEAN_ANOMALY": 237.1875, "EPHEMERIS_TYPE": 0, "CLASSIFICATION_TYPE": "U", "NORAD_CAT_ID": 41948, "ELEMENT_SET_NO": 999, "REV_AT_EPOCH": 49087, "BSTAR": 0.00039017343, "MEAN_MOTION_DOT": 8.142e-05, "MEAN_MOTION_DDOT": 0}, "tle": {"line1": "1 41948U 17008A   25357.30296049  .00008142  00000+0  39017-3 0  9994", "line2": "2 41948  97.4375  54.6397 0005234 122.9864 237.1875 15.19168890490872"}}, "geometry": {"type": "Point", "coordinates": [93.8821585391121, -78.25658075413484]}}, {"type": "Feature", "properties": {"norad_id": 42063, "name": "SENTINEL-2B", "group": "resource", "lat": 22.255040361802404, "lon": 66.3725056176111, "alt_km": 788.3627658435535, "timestamp": "2025-12-23T14:49:08.987103+00:00", "meta": {"OBJECT_NAME": "SENTINEL-2B", "OBJECT_ID": "2017-013A", "EPOCH": "2025-12-23T06:19:21.400896", "MEAN_MOTION": 14.30814422, "ECCENTRICITY": 0.0001188, "INCLINATION": 98.5707, "RA_OF_ASC_NODE": 69.5617, "ARG_OF_PERICENTER": 92.5254, "MEAN_ANOMALY": 267.6065, "EPHEMERIS_TYPE": 0, "CLASSIFICATION_TYPE": "U", "NORAD_CAT_ID": 42063, "ELEMENT_SET_NO": 999, "REV_AT_EPOCH": 45948, "BSTAR": 4.6549822e-05, "MEAN_MOTION_DOT": 7.8e-07, "MEAN_MOTION_DDOT": 0}, "tle": {"line1": "1 42063U 17013A   25357.26344214  .00000078  00000+0  46550-4 0  9993", "line2": "2 42063  98.5707  69.5617 0001188  92.5254 267.6065 14.30814422459483"}}, "geometry": {"type": "Point", "coordinates": [66.3725056176111, 22.255040361802404]}}, {"type": "Feature", "properties": {"norad_id": 42767, "name": "CARTOSAT-2E", "group": "resource", "lat": -8.473942782199035, "lon": -126.0556557520683, "alt_km": 510.1414726977591, "timestamp": "2025-12-23T14:49:08.987114+00:00", "meta": {"OBJECT_NAME": "CARTOSAT-2E", "OBJECT_ID": "2017-036C", "EPOCH": "2025-12-23T07:40:10.600896", "MEAN_MOTION": 15.19296075, "ECCENTRICITY": 0.00028143, "INCLINATION": 97.4535, "RA_OF_ASC_NODE": 54.768, "ARG_OF_PERICENTER": 190.0279, "MEAN_ANOMALY": 170.09, "EPHEMERIS_TYPE": 0, "CLASSIFICATION_TYPE": "U", "NORAD_CAT_ID": 42767, "ELEMENT_SET_NO": 999, "REV_AT_EPOCH": 47144, "BSTAR": 0.0002158548, "MEAN_MOTION_DOT": 4.487e-05, "MEAN_MOTION_DDOT": 0}, "tle": {"line1": "1 42767U 17036C   25357.31956714  .00004487  00000+0  21585-3 0  9997", "line2": "2 42767  97.4535  54.7680 0002814 190.0279 170.0900 15.19296075471446"}}, "geometry": {"type": "Point", "coordinates": [-126.0556557520683, -8.473942782199035]}}, {"type": "Feature", "properties": {"norad_id": 42920, "name": "FORMOSAT-5", "group": "resource", "lat": 81.44413966223179, "lon": -2.7897357999307455, "alt_km": 722.65704882103, "timestamp": "2025-12-23T14:49:08.987127+00:00", "meta": {"OBJECT_NAME": "FORMOSAT-5", "OBJECT_ID": "2017-049A", "EPOCH": "2025-12-23T04:29:03.045120", "MEAN_MOTION": 14.50766332, "ECCENTRICITY": 0.00098239, "INCLINATION": 98.244, "RA_OF_ASC_NODE": 71.2956, "ARG_OF_PERICENTER": 265.8101, "MEAN_ANOMALY": 94.1972, "EPHEMERIS_TYPE": 0, "CLASSIFICATION_TYPE": "U", "NORAD_CAT_ID": 42920, "ELEMENT_SET_NO": 999, "REV_AT_EPOCH": 44115, "BSTAR": 6.6072881e-05, "MEAN_MOTION_DOT": 2.16e-06, "MEAN_MOTION_DDOT": 0}, "tle": {"line1": "1 42920U 17049A   25357.18684080  .00000216  00000+0  66073-4 0  9999", "line2": "2 42920  98.2440  71.2956 0009823 265.8101  94.1972 14.50766332441155"}}, "geometry": {"type": "Point", "coordinates": [-2.7897357999307455, 81.44413966223179]}}, {"type": "Feature", "properties": {"norad_id": 42969, "name": "SENTINEL-5P", "group": "resource", "lat": -21.23763156127441, "lon": -60.45090526450543, "alt_km": 832.4566019468666, "timestamp": "2025-12-23T14:49:08.987139+00:00", "meta": {"OBJECT_NAME": "SENTINEL-5P", "OBJECT_ID": "2017-064A", "EPOCH": "2025-12-22T20:18:42.950880", "MEAN_MOTION": 14.19519853, "ECCENTRICITY": 0.00010225, "INCLINATION": 98.78, "RA_OF_ASC_NODE": 295.3414, "ARG_OF_PERICENTER": 91.3711, "MEAN_ANOMALY": 268.7582, "EPHEMERIS_TYPE": 0, "CLASSIFICATION_TYPE": "U", "NORAD_CAT_ID": 42969, "ELEMENT_SET_NO": 999, "REV_AT_EPOCH": 42454, "BSTAR": 5.1443237e-05, "MEAN_MOTION_DOT": 6.4e-07, "MEAN_MOTION_DDOT": 0}, "tle": {"line1": "1 42969U 17064A   25356.84633045  .00000064  00000+0  51443-4 0  9992", "line2": "2 42969  98.7800 295.3414 0001022  91.3711 268.7582 14.19519853424542"}}, "geometry": {"type": "Point", "coordinates": [-60.45090526450543, -21.23763156127441]}}]}